PROBA-1                 
1 26958U 01049B   26178.49131009  .00002321  00000+0  15186-3 0  9996
2 26958  97.9604 187.3832 0056534  88.1535 272.6165 15.07540785345173
CUTE-1 (CO-55)          
1 27844U 03031E   26178.29336882  .00000290  00000+0  14447-3 0  9990
2 27844  98.6736 186.7252 0010153 149.6738 210.5030 14.24341593193117
CUBESAT XI-IV (CO-57)   
1 27848U 03031J   26177.93548419  .00000243  00000+0  12580-3 0  9999
2 27848  98.6768 186.0767 0009653 168.4758 191.6643 14.23625736192766
APRIZESAT 4             
1 35684U 09041D   26178.43918713  .00000649  00000+0  84054-4 0  9993
2 35684  98.1411 253.9639 0041942 288.9274  70.7395 14.83891802912882
APRIZESAT 3             
1 35686U 09041F   26178.39758251  .00000951  00000+0  86851-4 0  9992
2 35686  98.2076 332.1113 0062455  34.3916 326.1322 14.96271250917906
PROBA-2                 
1 36037U 09059B   26178.48802301  .00000192  00000+0  55223-4 0  9994
2 36037  98.2450   1.6980 0012029 246.7484 113.2447 14.54866570883021
APRIZESAT 5             
1 37792U 11044E   26178.34368212  .00001064  00000+0  14154-3 0  9999
2 37792  98.2452 111.6720 0051510 331.5008  28.3388 14.81096550800290
APRIZESAT 6             
1 37793U 11044F   26178.32084118  .00000817  00000+0  12220-3 0  9995
2 37793  98.2358  89.0271 0044270  54.6012  68.6385 14.76930832798641
PROBA-V                 
1 39159U 13021A   26178.52129156  .00000096  00000+0  60092-4 0  9994
2 39159  98.3590 156.6180 0005408  99.7451 260.4339 14.23599377682588
APRIZESAT 7             
1 39416U 13066A   26178.41796624  .00001289  00000+0  13265-3 0  9991
2 39416  97.7711 131.4908 0035879 174.9585 185.2002 14.91584176682756
APRIZESAT 8             
1 39425U 13066K   26178.36511457  .00000867  00000+0  99834-4 0  9992
2 39425  97.8223 125.6913 0044392 251.9006 107.7373 14.87669787681183
BUGSAT-1 (TITA)         
1 40014U 14033E   26178.53348447  .00007245  00000+0  38036-3 0  9992
2 40014  98.0432 271.6874 0028764 143.7423 216.5765 15.15700431657404
SAUDISAT 4              
1 40016U 14033G   26178.39849875  .00000606  00000+0  86370-4 0  9998
2 40016  97.7593 324.1804 0045688  41.6411 318.8265 14.79556943647589
APRIZESAT 9             
1 40018U 14033J   26178.32084433  .00000770  00000+0  12014-3 0  9999
2 40018  97.9071 311.2723 0066488 166.5710 193.7288 14.74228562645054
APRIZESAT 10            
1 40019U 14033K   26178.33075552  .00000521  00000+0  89644-4 0  9991
2 40019  97.9661 305.0646 0077579 240.8899 118.4525 14.70891875643743
TECHDEMOSAT-1 (TDS-1)   
1 40076U 14037H   26178.47309093  .00008026  00000+0  45314-3 0  9996
2 40076  98.3810 171.7061 0005171 220.5736 139.5108 15.13438559649785
TECHNOSAT               
1 42829U 17042E   26178.42185440  .00003013  00000+0  21559-3 0  9992
2 42829  97.4291 335.6913 0019234  62.4568 297.8610 15.05020610488248
FLYING LAPTOP           
1 42831U 17042G   26178.51725409  .00002209  00000+0  17589-3 0  9994
2 42831  97.4725 333.6550 0019970  88.7419 271.6093 15.01208876488008
HAWK-A                  
1 43765U 18099H   26178.45497490  .00006631  00000+0  26647-3 0  9991
2 43765  97.3913 230.5571 0033223 247.8563 111.9148 15.24758916414664
HAWK-B                  
1 43794U 18099AN  26178.09453876  .00006368  00000+0  27107-3 0  9992
2 43794  97.3963 229.5956 0030236 268.1786  91.5987 15.22926951414545
HAWK-C                  
1 43799U 18099AT  26178.40822402  .00008170  00000+0  29308-3 0  9995
2 43799  97.3890 231.4736 0038848 247.9590 111.7521 15.28241835415471
SALSAT                  
1 46495U 20068K   26178.47981012  .00007487  00000+0  26096-3 0  9991
2 46495  97.8847 182.1720 0007835 263.9678  96.0668 15.29940196316931
HAWK-2C                 
1 47502U 21006CT  26178.38882802  .00007117  00000+0  21317-3 0  9992
2 47502  97.2278 222.4953 0007759 152.2794 207.8865 15.34783887301060
HAWK-2A                 
1 47505U 21006CW  26178.39122213  .00006889  00000+0  20637-3 0  9998
2 47505  97.2320 223.1814 0007220 155.0942 205.0651 15.34797741301061
HAWK-2B                 
1 47508U 21006CZ  26178.06016086  .00008040  00000+0  23963-3 0  9991
2 47508  97.2187 221.1725 0007787 154.9386 205.2237 15.34897058301011
HAWK-3B                 
1 48931U 21059BE  26178.52227095  .00043306  00000+0  35439-3 0  9990
2 48931  97.6648  16.2140 0003127 277.3164  82.7742 15.70424528279471
HAWK-3C                 
1 48948U 21059BX  26178.52194417  .00040650  00000+0  33282-3 0  9992
2 48948  97.6767  21.9176 0003356 277.6667  82.4213 15.70424339279478
HAWK-3A                 
1 48957U 21059CG  26178.52180885  .00042548  00000+0  34835-3 0  9999
2 48957  97.6710  19.1141 0003281 280.0329  80.0562 15.70416396279472
HAWK-5C                 
1 52754U 22057Y   26178.42759012  .00020247  00000+0  34087-3 0  9992
2 52754  97.6603 338.7577 0004270  49.9025 310.2600 15.51744273227932
HAWK-5B                 
1 52756U 22057AA  26178.42742449  .00020201  00000+0  34003-3 0  9998
2 52756  97.6611 337.1076 0004906  41.7958 318.3667 15.51747849227935
HAWK-5A                 
1 52757U 22057AB  26178.42722546  .00020339  00000+0  34235-3 0  9994
2 52757  97.6610 337.9388 0004815  44.6528 315.5110 15.51746586227932
