OBJECT_NAME,OBJECT_ID,EPOCH,MEAN_MOTION,ECCENTRICITY,INCLINATION,RA_OF_ASC_NODE,ARG_OF_PERICENTER,MEAN_ANOMALY,EPHEMERIS_TYPE,CLASSIFICATION_TYPE,NORAD_CAT_ID,ELEMENT_SET_NO,REV_AT_EPOCH,BSTAR,MEAN_MOTION_DOT,MEAN_MOTION_DDOT
PROBA-1,2001-049B,2026-06-27T11:47:29.191776,15.07540785,.0056534,97.9604,187.3832,88.1535,272.6165,0,U,26958,999,34517,.15186E-3,.2321E-4,0
CUTE-1 (CO-55),2003-031E,2026-06-27T07:02:27.066048,14.24341593,.0010153,98.6736,186.7252,149.6738,210.5030,0,U,27844,999,19311,.14447E-3,.29E-5,0
CUBESAT XI-IV (CO-57),2003-031J,2026-06-26T22:27:05.834016,14.23625736,.0009653,98.6768,186.0767,168.4758,191.6643,0,U,27848,999,19276,.1258E-3,.243E-5,0
APRIZESAT 4,2009-041D,2026-06-27T10:32:25.768032,14.83891802,.0041942,98.1411,253.9639,288.9274,70.7395,0,U,35684,999,91288,.84054E-4,.649E-5,0
APRIZESAT 3,2009-041F,2026-06-27T09:32:31.128864,14.96271250,.0062455,98.2076,332.1113,34.3916,326.1322,0,U,35686,999,91790,.86851E-4,.951E-5,0
PROBA-2,2009-059B,2026-06-27T11:42:45.188064,14.54866570,.0012029,98.2450,1.6980,246.7484,113.2447,0,U,36037,999,88302,.55223E-4,.192E-5,0
APRIZESAT 5,2011-044E,2026-06-27T08:14:54.135168,14.81096550,.005151,98.2452,111.6720,331.5008,28.3388,0,U,37792,999,80029,.14154E-3,.1064E-4,0
APRIZESAT 6,2011-044F,2026-06-27T07:42:00.677952,14.76930832,.004427,98.2358,89.0271,54.6012,68.6385,0,U,37793,999,79864,.1222E-3,.817E-5,0
PROBA-V,2013-021A,2026-06-27T12:30:39.590784,14.23599377,.0005408,98.3590,156.6180,99.7451,260.4339,0,U,39159,999,68258,.60092E-4,.96E-6,0
APRIZESAT 7,2013-066A,2026-06-27T10:01:52.283136,14.91584176,.0035879,97.7711,131.4908,174.9585,185.2002,0,U,39416,999,68275,.13265E-3,.1289E-4,0
APRIZESAT 8,2013-066K,2026-06-27T08:45:45.898848,14.87669787,.0044392,97.8223,125.6913,251.9006,107.7373,0,U,39425,999,68118,.99834E-4,.867E-5,0
BUGSAT-1 (TITA),2014-033E,2026-06-27T12:48:13.058208,15.15700431,.0028764,98.0432,271.6874,143.7423,216.5765,0,U,40014,999,65740,.38036E-3,.7245E-4,0
SAUDISAT 4,2014-033G,2026-06-27T09:33:50.292000,14.79556943,.0045688,97.7593,324.1804,41.6411,318.8265,0,U,40016,999,64758,.8637E-4,.606E-5,0
APRIZESAT 9,2014-033J,2026-06-27T07:42:00.950112,14.74228562,.0066488,97.9071,311.2723,166.5710,193.7288,0,U,40018,999,64505,.12014E-3,.77E-5,0
APRIZESAT 10,2014-033K,2026-06-27T07:56:17.276928,14.70891875,.0077579,97.9661,305.0646,240.8899,118.4525,0,U,40019,999,64374,.89644E-4,.521E-5,0
TECHDEMOSAT-1 (TDS-1),2014-037H,2026-06-27T11:21:15.056352,15.13438559,.0005171,98.3810,171.7061,220.5736,139.5108,0,U,40076,999,64978,.45314E-3,.8026E-4,0
TECHNOSAT,2017-042E,2026-06-27T10:07:28.220160,15.05020610,.0019234,97.4291,335.6913,62.4568,297.8610,0,U,42829,999,48824,.21559E-3,.3013E-4,0
FLYING LAPTOP,2017-042G,2026-06-27T12:24:50.753376,15.01208876,.001997,97.4725,333.6550,88.7419,271.6093,0,U,42831,999,48800,.17589E-3,.2209E-4,0
HAWK-A,2018-099H,2026-06-27T10:55:09.831360,15.24758916,.0033223,97.3913,230.5571,247.8563,111.9148,0,U,43765,999,41466,.26647E-3,.6631E-4,0
HAWK-B,2018-099AN,2026-06-27T02:16:08.148864,15.22926951,.00302366,97.3963,229.5956,268.1786,91.5987,0,U,43794,999,41454,.27106823E-3,.6368E-4,0
HAWK-C,2018-099AT,2026-06-27T09:47:50.555328,15.28241835,.0038848,97.3890,231.4736,247.9590,111.7521,0,U,43799,999,41547,.29308E-3,.817E-4,0
SALSAT,2020-068K,2026-06-27T11:30:55.594368,15.29940196,.0007835,97.8847,182.1720,263.9678,96.0668,0,U,46495,999,31693,.26096E-3,.7487E-4,0
HAWK-2C,2021-006CT,2026-06-27T09:19:54.740928,15.34783887,.0007759,97.2278,222.4953,152.2794,207.8865,0,U,47502,999,30106,.21317E-3,.7117E-4,0
HAWK-2A,2021-006CW,2026-06-27T09:23:21.592032,15.34797741,.000722,97.2320,223.1814,155.0942,205.0651,0,U,47505,999,30106,.20637E-3,.6889E-4,0
HAWK-2B,2021-006CZ,2026-06-27T01:26:37.898304,15.34897058,.00077877,97.2187,221.1725,154.9386,205.2237,0,U,47508,999,30101,.23963376E-3,.804E-4,0
HAWK-3B,2021-059BE,2026-06-27T12:32:04.210080,15.70424528,.0003127,97.6648,16.2140,277.3164,82.7742,0,U,48931,999,27947,.35439E-3,.43306E-3,0
HAWK-3C,2021-059BX,2026-06-27T12:31:35.976288,15.70424339,.0003356,97.6767,21.9176,277.6667,82.4213,0,U,48948,999,27947,.33282E-3,.4065E-3,0
HAWK-3A,2021-059CG,2026-06-27T12:31:24.284640,15.70416396,.0003281,97.6710,19.1141,280.0329,80.0562,0,U,48957,999,27947,.34835E-3,.42548E-3,0
HAWK-5C,2022-057Y,2026-06-27T10:15:43.786368,15.51744273,.000427,97.6603,338.7577,49.9025,310.2600,0,U,52754,999,22793,.34087E-3,.20247E-3,0
HAWK-5B,2022-057AA,2026-06-27T10:15:29.475936,15.51747849,.0004906,97.6611,337.1076,41.7958,318.3667,0,U,52756,999,22793,.34003E-3,.20201E-3,0
HAWK-5A,2022-057AB,2026-06-27T10:15:12.279744,15.51746586,.0004815,97.6610,337.9388,44.6528,315.5110,0,U,52757,999,22793,.34235E-3,.20339E-3,0
